[{"OBJECT_NAME":"IRIDIUM 173","OBJECT_ID":"2019-002D","EPOCH":"2026-03-09T23:25:14.922624","MEAN_MOTION":14.34217176,"ECCENTRICITY":0.00020878,"INCLINATION":86.3979,"RA_OF_ASC_NODE":35.0129,"ARG_OF_PERICENTER":83.8645,"MEAN_ANOMALY":276.2788,"EPHEMERIS_TYPE":0,"CLASSIFICATION_TYPE":"U","NORAD_CAT_ID":43925,"ELEMENT_SET_NO":999,"REV_AT_EPOCH":37473,"BSTAR":2.1469625e-5,"MEAN_MOTION_DOT":8.0e-7,"MEAN_MOTION_DDOT":0},{"OBJECT_NAME":"FENGYUN 1C DEB","OBJECT_ID":"1999-025BAZ","EPOCH":"2026-02-28T02:44:34.725120","MEAN_MOTION":14.38997235,"ECCENTRICITY":0.00518676,"INCLINATION":99.6935,"RA_OF_ASC_NODE":22.4487,"ARG_OF_PERICENTER":347.2744,"MEAN_ANOMALY":12.7127,"EPHEMERIS_TYPE":0,"CLASSIFICATION_TYPE":"U","NORAD_CAT_ID":30959,"ELEMENT_SET_NO":999,"REV_AT_EPOCH":61498,"BSTAR":0.0027857452,"MEAN_MOTION_DOT":8.69e-5,"MEAN_MOTION_DDOT":0}]
